AMC-1 (GE-1)            
1 24315U 96054A   22278.62320760  .00000052  00000+0  00000+0 0  9991
2 24315   5.8765  72.1920 0003286 116.6677 278.8817  1.00271677 32784
AMC-3 (GE-3)            
1 24936U 97050A   22278.88941441 -.00000274  00000+0  00000+0 0  9997
2 24936   4.8109  78.4191 0002904 115.0422  69.2800  1.00270544 38894
ASTRA 1G                
1 25071U 97076A   22278.70118904  .00000102  00000+0  00000+0 0  9996
2 25071   6.4935  67.4195 0003363 124.1005  94.6699  1.00272715 90966
ASTRA 2A                
1 25462U 98050A   22278.72619819  .00000054  00000+0  00000+0 0  9992
2 25462   3.6749  84.3549 0003182 119.4531 129.2082  1.00270704 32797
AMC-4 (GE-4)            
1 25954U 99060A   22278.68345508  .00000072  00000+0  00000+0 0  9996
2 25954   1.7930  90.5221 0002907 107.6026 287.3573  1.00271346 30019
NSS-11 (AAP-1)          
1 26554U 00059A   22278.81713321  .00000008  00000+0  00000+0 0  9999
2 26554   0.0465  67.8188 0002649 121.2978 295.5199  1.00271242 27758
AMC-6 (GE-6)            
1 26580U 00067A   22278.68267028  .00000087  00000+0  00000+0 0  9997
2 26580   0.0419  67.9517 0002692 121.2873 291.8697  1.00270222 80371
ASTRA 2D                
1 26638U 00081A   22278.57157705  .00000117  00000+0  00000+0 0  9999
2 26638   7.5231  59.5366 0001796 142.2824  41.8829  1.00268609 39360
AMC-8 (GE-8)            
1 26639U 00081B   22278.68345508  .00000072  00000+0  00000+0 0  9992
2 26639   2.7190  87.3618 0001956  56.9013 341.1440  1.00273519 79792
ASTRA 2C                
1 26853U 01025A   22278.89351072 -.00000273  00000+0  00000+0 0  9999
2 26853   4.8352  78.2241 0002943 120.1363  65.3938  1.00271886 31502
ASTRA 3A                
1 27400U 02015B   22278.53326090 -.00000215  00000+0  00000+0 0  9997
2 27400   7.6221  58.4232 0001951 147.5961 273.3560  1.00269130 75174
NSS-7                   
1 27414U 02019A   22278.76646588 -.00000171  00000+0  00000+0 0  9999
2 27414   6.1529  70.3790 0002495 142.6280  57.3592  1.00271591 75023
NSS-6                   
1 27603U 02057A   22278.82001082  .00000092  00000+0  00000+0 0  9993
2 27603   1.8845  90.3150 0003468 104.5950 305.2961  1.00268363 72508
AMC-11 (GE-11)          
1 28252U 04017A   22278.68423990  .00000052  00000+0  00000+0 0  9998
2 28252   0.0451  53.4034 0002791 142.1174 294.1451  1.00271283 67349
AMC-15                  
1 28446U 04041A   22278.57902951 -.00000105  00000+0  00000+0 0  9997
2 28446   0.0452  45.4103 0002576 133.0641 299.1665  1.00271316 65787
NSS-10 (AMC-12)         
1 28526U 05003A   22278.84635962 -.00000265  00000+0  00000+0 0  9997
2 28526   3.0553  86.1289 0003026  90.7613 104.8652  1.00271952 39614
ASTRA 1KR               
1 29055U 06012A   22278.86904193  .00000103  00000+0  00000+0 0  9993
2 29055   0.0176 168.4258 0004918  41.9441 136.2280  1.00274164 32187
AMC-18                  
1 29644U 06054B   22278.83727648 -.00000233  00000+0  00000+0 0  9993
2 29644   0.0423  70.6840 0002497 115.8914  46.3403  1.00272212 58002
ASTRA 1L                
1 31306U 07016A   22278.86904196  .00000103  00000+0  00000+0 0  9993
2 31306   0.0092 333.0129 0003497 265.2602 108.3290  1.00274265 56509
ASTRA 4A (SIRIUS 4)     
1 32299U 07057A   22279.16368855  .00000015  00000+0  00000+0 0  9992
2 32299   0.0468  69.3920 0002962 124.1825 244.9819  1.00271624 54421
AMC-21                  
1 33275U 08038B   22278.68537348  .00000019  00000+0  00000+0 0  9992
2 33275   0.0447  61.4429 0002412 128.0729 306.6660  1.00270512 51956
ASTRA 1M                
1 33436U 08057A   22278.86904247  .00000103  00000+0  00000+0 0  9992
2 33436   0.0474  99.9725 0005094  72.5783 174.0276  1.00273718 32187
CIEL-2                  
1 33453U 08063A   22279.19743691  .00000040  00000+0  00000+0 0  9999
2 33453   0.0139 219.7015 0003072 333.1780 124.2002  1.00272269 50583
NSS-9                   
1 33749U 09008A   22278.81852841  .00000055  00000+0  00000+0 0  9999
2 33749   0.0454  52.0445 0002108 141.5011 298.6756  1.00272569 49991
SES-7 (PROTOSTAR 2)     
1 34941U 09027A   22278.85968356 -.00000362  00000+0  00000+0 0  9990
2 34941   0.0823  87.6086 0002075 148.6819 195.9578  1.00268241 49070
NSS-12                  
1 36032U 09058A   22278.76229830  .00000054  00000+0  00000+0 0  9991
2 36032   0.0468  76.1203 0002895 121.8411 147.8789  1.00271392 47375
SES-1                   
1 36516U 10016A   22278.58394122 -.00000131  00000+0  00000+0 0  9998
2 36516   0.0244 290.1452 0002593 264.4320 288.8983  1.00272752 45502
ASTRA 3B                
1 36581U 10021A   22278.87254013  .00000119  00000+0  00000+0 0  9997
2 36581   0.0737  58.4699 0003668 138.7523 154.9312  1.00269867 45334
SES-3                   
1 37748U 11035A   22279.04848999 -.00000120  00000+0  00000+0 0  9994
2 37748   0.0531  47.1888 0002873 144.2660  97.7090  1.00271187 41159
ASTRA 1N                
1 37775U 11041A   22278.86903821  .00000102  00000+0  00000+0 0  9995
2 37775   0.0609  37.1418 0001562 106.7883 202.6069  1.00272595 30983
SES-2                   
1 37809U 11049A   22278.55674240 -.00000213  00000+0  00000+0 0  9991
2 37809   0.0442  74.0693 0002870 112.8308 300.7500  1.00271797 40427
QUETZSAT 1              
1 37826U 11054A   22278.83849729 -.00000259  00000+0  00000+0 0  9993
2 37826   0.0439  63.6440 0002873 125.5562  50.1578  1.00272478 36357
SES-4                   
1 38087U 12007A   22278.85882809 -.00000185  00000+0  00000+0 0  9998
2 38087   0.0128 246.8743 0002446 311.9461 102.8750  1.00270625 38696
SES-5                   
1 38652U 12036A   22278.63959331  .00000017  00000+0  00000+0 0  9992
2 38652   0.0621 292.0542 0002239 255.3252  62.1604  1.00271523 30945
ASTRA 2F                
1 38778U 12051A   22278.87604340  .00000132  00000+0  00000+0 0  9999
2 38778   0.0608 240.0003 0004520 332.5862 145.5187  1.00273201 27587
SES-6                   
1 39172U 13026A   22278.86993686 -.00000278  00000+0  00000+0 0  9996
2 39172   0.0155  18.5903 0002476 180.2534  88.3752  1.00270768 34183
O3B FM5                 
1 39188U 13031A   22278.61689432 -.00000026  00000+0  00000+0 0  9994
2 39188   0.0636  17.0212 0002639 181.4470 161.5251  5.00115263169475
O3B FM4                 
1 39189U 13031B   22278.67290242 -.00000026  00000+0  00000+0 0  9998
2 39189   0.0511 351.9838 0002595 206.1443 161.8655  5.00115761169494
O3B FM2                 
1 39190U 13031C   22278.96419851 -.00000026  00000+0  00000+0 0  9991
2 39190   0.0512 346.3853 0002622 211.4082 162.2002  5.00115138169557
O3B PFM                 
1 39191U 13031D   22278.99050966 -.00000026  00000+0  00000+0 0  9993
2 39191   0.0572  11.1005 0002656 184.2557 164.6386  5.00115659169572
ASTRA 2E                
1 39285U 13056A   22278.87604234  .00000133  00000+0  00000+0 0  9992
2 39285   0.0857 318.8154 0002820 235.0420 164.5328  1.00273365 32895
SES-8                   
1 39460U 13071A   22278.85082892 -.00000287  00000+0  00000+0 0  9993
2 39460   0.0220 236.8378 0001877 282.5351 256.4357  1.00271865 30885
ASTRA 5B                
1 39617U 14011B   22278.86013727  .00000137  00000+0  00000+0 0  9997
2 39617   0.0921 298.0166 0004548 249.9203 167.7378  1.00270319 31121
O3B FM3                 
1 40079U 14038A   22278.44561947 -.00000025  00000+0  00000+0 0  9993
2 40079   0.0539 359.8666 0004852 178.7755 181.3621  5.00115284145470
O3B FM7                 
1 40080U 14038B   22277.39223711 -.00000024  00000+0  00000+0 0  9991
2 40080   0.0563 355.8486 0001848 242.9124 121.2244  5.00115442150253
O3B FM6                 
1 40081U 14038C   22278.81785099 -.00000026  00000+0  00000+0 0  9994
2 40081   0.0529 359.3126 0002718 196.2102 164.4717  5.00115291150278
O3B FM8                 
1 40082U 14038D   22278.27209514 -.00000025  00000+0  00000+0 0  9997
2 40082   0.0510 356.6317 0002643 194.9337 168.4316  5.00115619150366
O3B FM10                
1 40348U 14083A   22278.49806039 -.00000026  00000+0  00000+0 0  9992
2 40348   0.0524   9.0483 0002640 185.6361 165.3109  5.00115094142320
O3B FM11                
1 40349U 14083B   22278.71139775 -.00000026  00000+0  00000+0 0  9994
2 40349   0.0570   7.8131 0002580 202.6493 149.5255  5.00115338142357
O3B FM12                
1 40350U 14083C   22278.33882944 -.00000025  00000+0  00000+0 0  9996
2 40350   0.0562   7.2654 0002780 189.7419 162.9864  5.00115206142347
O3B FM9                 
1 40351U 14083D   22278.56558090 -.00000026  00000+0  00000+0 0  9995
2 40351   0.0581   7.8237 0002619 188.4872 163.6836  5.00116089142507
ASTRA 2G                
1 40364U 14089A   22278.87604250  .00000132  00000+0  00000+0 0  9996
2 40364   0.0119  53.4177 0002128  51.5098 253.1459  1.00270767 28423
SES-9                   
1 41380U 16013A   22278.49293359 -.00000362  00000+0  00000+0 0  9992
2 41380   0.0298 276.1018 0001680 218.4165 165.4016  1.00271052 23897
SES-10                  
1 42432U 17017A   22279.12063424 -.00000290  00000+0  00000+0 0  9995
2 42432   0.0155 177.0508 0002972  21.2424 152.9953  1.00266428 20185
SES-15                  
1 42709U 17026A   22278.62530021  .00000043  00000+0  00000+0 0  9993
2 42709   0.0153  21.7110 0000452 143.6476 304.8797  1.00268526 20647
SES-11 (ECHOSTAR 105)   
1 42967U 17063A   22278.57902978 -.00000106  00000+0  00000+0 0  9999
2 42967   0.0447 277.2716 0003201 278.7600 281.7100  1.00270947 18180
SES-14                  
1 43175U 18012B   22278.70089515 -.00000295  00000+0  00000+0 0  9993
2 43175   0.0263 282.2762 0001191 260.5531  36.3530  1.00270200 17512
O3B FM15                
1 43231U 18024A   22278.63152180 -.00000026  00000+0  00000+0 0  9992
2 43231   0.0492  10.6949 0002949 186.2711 163.0270  5.00115960 83466
O3B FM16                
1 43232U 18024B   22278.68491562 -.00000026  00000+0  00000+0 0  9998
2 43232   0.0460  13.9233 0002931 183.7455 162.3239  5.00115830 83375
O3B FM14                
1 43233U 18024C   22278.52468317 -.00000026  00000+0  00000+0 0  9994
2 43233   0.0445  14.4440 0002781 185.4105 160.1377  5.00115262 83388
O3B FM13                
1 43234U 18024D   22278.37852118 -.00000025  00000+0  00000+0 0  9993
2 43234   0.0642  23.4951 0007487  78.6992 257.8925  5.00041593 83490
SES-12                  
1 43488U 18049A   22278.62813683 -.00000287  00000+0  00000+0 0  9993
2 43488   0.0434  50.6287 0001918 186.0106  98.7793  1.00270394 15879
O3B FM20                
1 44112U 19020A   22278.75127864 -.00000026  00000+0  00000+0 0  9992
2 44112   0.0520   8.5369 0003126 194.9213 156.5304  5.00115398 64010
O3B FM19                
1 44113U 19020B   22278.57820303 -.00000026  00000+0  00000+0 0  9991
2 44113   0.0720  19.4643 0001589 204.6594 135.8665  5.00114724 63865
O3B FM17                
1 44114U 19020C   22278.25891228 -.00000025  00000+0  00000+0 0  9990
2 44114   0.0354 354.7615 0003068 202.2130 163.0183  5.00115504 63941
O3B FM18                
1 44115U 19020D   22278.80509542 -.00000026  00000+0  00000+0 0  9998
2 44115   0.0523   8.7525 0002890 186.2327 165.0091  5.00115709 64080
SES-17                  
1 49332U 21095A   22278.84024130 -.00000289  00000+0  00000+0 0  9999
2 49332   0.0164 157.8121 0001158  22.9302  69.1511  1.00269448  4306
SES-22                  
1 52933U 22071A   22278.68345508  .00000071  00000+0  00000+0 0  9990
2 52933   0.0175 228.9075 0002673 344.1413 272.3418  1.00270700  1014
